[{"OBJECT_NAME":"ION SCV-011","OBJECT_ID":"2023-084AB","EPOCH":"2026-03-09T22:35:16.566144","MEAN_MOTION":15.27752464,"ECCENTRICITY":0.00079323,"INCLINATION":98.1356,"RA_OF_ASC_NODE":247.1056,"ARG_OF_PERICENTER":30.3898,"MEAN_ANOMALY":329.7798,"EPHEMERIS_TYPE":0,"CLASSIFICATION_TYPE":"U","NORAD_CAT_ID":56957,"ELEMENT_SET_NO":999,"REV_AT_EPOCH":15065,"BSTAR":0.0002590454,"MEAN_MOTION_DOT":6.943e-5,"MEAN_MOTION_DDOT":0},{"OBJECT_NAME":"STARLINK-34260","OBJECT_ID":"2025-124T","EPOCH":"2026-03-09T12:45:35.584704","MEAN_MOTION":15.27585172,"ECCENTRICITY":0.00020538,"INCLINATION":43.0023,"RA_OF_ASC_NODE":122.8303,"ARG_OF_PERICENTER":261.3098,"MEAN_ANOMALY":98.7521,"EPHEMERIS_TYPE":0,"CLASSIFICATION_TYPE":"U","NORAD_CAT_ID":64334,"ELEMENT_SET_NO":999,"REV_AT_EPOCH":4175,"BSTAR":0.00096485008,"MEAN_MOTION_DOT":0.00026388,"MEAN_MOTION_DDOT":0}]
